{"type":"FeatureCollection","updated":1780999050763,"features":[{"type":"Feature","geometry":{"type":"Point","coordinates":[65,33]},"properties":{"country":"Afghanistan","cases":234174,"deaths":7996,"recovered":211080,"cfr":3.41}},{"type":"Feature","geometry":{"type":"Point","coordinates":[20,41]},"properties":{"country":"Albania","cases":334863,"deaths":3605,"recovered":330233,"cfr":1.08}},{"type":"Feature","geometry":{"type":"Point","coordinates":[3,28]},"properties":{"country":"Algeria","cases":272010,"deaths":6881,"recovered":183061,"cfr":2.53}},{"type":"Feature","geometry":{"type":"Point","coordinates":[1.6,42.5]},"properties":{"country":"Andorra","cases":48015,"deaths":165,"recovered":0,"cfr":0.34}},{"type":"Feature","geometry":{"type":"Point","coordinates":[18.5,-12.5]},"properties":{"country":"Angola","cases":107327,"deaths":1937,"recovered":103419,"cfr":1.8}},{"type":"Feature","geometry":{"type":"Point","coordinates":[-63.1667,18.25]},"properties":{"country":"Anguilla","cases":3904,"deaths":12,"recovered":0,"cfr":0.31}},{"type":"Feature","geometry":{"type":"Point","coordinates":[-61.8,17.05]},"properties":{"country":"Antigua and Barbuda","cases":9106,"deaths":146,"recovered":8954,"cfr":1.6}},{"type":"Feature","geometry":{"type":"Point","coordinates":[-64,-34]},"properties":{"country":"Argentina","cases":10128845,"deaths":130841,"recovered":9997258,"cfr":1.29}},{"type":"Feature","geometry":{"type":"Point","coordinates":[45,40]},"properties":{"country":"Armenia","cases":451831,"deaths":8777,"recovered":435162,"cfr":1.94}},{"type":"Feature","geometry":{"type":"Point","coordinates":[-69.9667,12.5]},"properties":{"country":"Aruba","cases":44224,"deaths":292,"recovered":42438,"cfr":0.66}},{"type":"Feature","geometry":{"type":"Point","coordinates":[133,-27]},"properties":{"country":"Australia","cases":11853144,"deaths":24414,"recovered":11820014,"cfr":0.21}},{"type":"Feature","geometry":{"type":"Point","coordinates":[13.3333,47.3333]},"properties":{"country":"Austria","cases":6081287,"deaths":22542,"recovered":6054934,"cfr":0.37}},{"type":"Feature","geometry":{"type":"Point","coordinates":[47.5,40.5]},"properties":{"country":"Azerbaijan","cases":835234,"deaths":10400,"recovered":824089,"cfr":1.25}},{"type":"Feature","geometry":{"type":"Point","coordinates":[-76,24.25]},"properties":{"country":"Bahamas","cases":38084,"deaths":844,"recovered":36366,"cfr":2.22}},{"type":"Feature","geometry":{"type":"Point","coordinates":[50.55,26]},"properties":{"country":"Bahrain","cases":729549,"deaths":1574,"recovered":727915,"cfr":0.22}},{"type":"Feature","geometry":{"type":"Point","coordinates":[90,24]},"properties":{"country":"Bangladesh","cases":2049377,"deaths":29493,"recovered":0,"cfr":1.44}},{"type":"Feature","geometry":{"type":"Point","coordinates":[-59.5333,13.1667]},"properties":{"country":"Barbados","cases":110578,"deaths":648,"recovered":108647,"cfr":0.59}},{"type":"Feature","geometry":{"type":"Point","coordinates":[28,53]},"properties":{"country":"Belarus","cases":994037,"deaths":7118,"recovered":985592,"cfr":0.72}},{"type":"Feature","geometry":{"type":"Point","coordinates":[4,50.8333]},"properties":{"country":"Belgium","cases":4861695,"deaths":34376,"recovered":4826798,"cfr":0.71}},{"type":"Feature","geometry":{"type":"Point","coordinates":[-88.75,17.25]},"properties":{"country":"Belize","cases":71409,"deaths":688,"recovered":0,"cfr":0.96}},{"type":"Feature","geometry":{"type":"Point","coordinates":[2.25,9.5]},"properties":{"country":"Benin","cases":28036,"deaths":163,"recovered":27847,"cfr":0.58}},{"type":"Feature","geometry":{"type":"Point","coordinates":[-64.75,32.3333]},"properties":{"country":"Bermuda","cases":18860,"deaths":165,"recovered":18685,"cfr":0.87}},{"type":"Feature","geometry":{"type":"Point","coordinates":[90.5,27.5]},"properties":{"country":"Bhutan","cases":62697,"deaths":21,"recovered":61564,"cfr":0.03}},{"type":"Feature","geometry":{"type":"Point","coordinates":[-65,-17]},"properties":{"country":"Bolivia","cases":1212131,"deaths":22407,"recovered":1177145,"cfr":1.85}},{"type":"Feature","geometry":{"type":"Point","coordinates":[18,44]},"properties":{"country":"Bosnia","cases":403615,"deaths":16388,"recovered":379084,"cfr":4.06}},{"type":"Feature","geometry":{"type":"Point","coordinates":[24,-22]},"properties":{"country":"Botswana","cases":330638,"deaths":2801,"recovered":327049,"cfr":0.85}},{"type":"Feature","geometry":{"type":"Point","coordinates":[-55,-10]},"properties":{"country":"Brazil","cases":38743918,"deaths":711380,"recovered":36249161,"cfr":1.84}},{"type":"Feature","geometry":{"type":"Point","coordinates":[-64.5,18.5]},"properties":{"country":"British Virgin Islands","cases":7392,"deaths":64,"recovered":0,"cfr":0.87}},{"type":"Feature","geometry":{"type":"Point","coordinates":[114.6667,4.5]},"properties":{"country":"Brunei","cases":343719,"deaths":225,"recovered":243601,"cfr":0.07}},{"type":"Feature","geometry":{"type":"Point","coordinates":[25,43]},"properties":{"country":"Bulgaria","cases":1339851,"deaths":38748,"recovered":1292944,"cfr":2.89}},{"type":"Feature","geometry":{"type":"Point","coordinates":[-2,13]},"properties":{"country":"Burkina Faso","cases":22114,"deaths":400,"recovered":21596,"cfr":1.81}},{"type":"Feature","geometry":{"type":"Point","coordinates":[30,-3.5]},"properties":{"country":"Burundi","cases":54721,"deaths":38,"recovered":53569,"cfr":0.07}},{"type":"Feature","geometry":{"type":"Point","coordinates":[-24,16]},"properties":{"country":"Cabo Verde","cases":64477,"deaths":417,"recovered":63755,"cfr":0.65}},{"type":"Feature","geometry":{"type":"Point","coordinates":[105,13]},"properties":{"country":"Cambodia","cases":139103,"deaths":3056,"recovered":136044,"cfr":2.2}},{"type":"Feature","geometry":{"type":"Point","coordinates":[12,6]},"properties":{"country":"Cameroon","cases":125379,"deaths":1974,"recovered":123280,"cfr":1.57}},{"type":"Feature","geometry":{"type":"Point","coordinates":[-95,60]},"properties":{"country":"Canada","cases":4946090,"deaths":59034,"recovered":4881312,"cfr":1.19}},{"type":"Feature","geometry":{"type":"Point","coordinates":[-68.26,12.2]},"properties":{"country":"Caribbean Netherlands","cases":11682,"deaths":38,"recovered":10476,"cfr":0.33}},{"type":"Feature","geometry":{"type":"Point","coordinates":[-80.5,19.5]},"properties":{"country":"Cayman Islands","cases":31472,"deaths":37,"recovered":8553,"cfr":0.12}},{"type":"Feature","geometry":{"type":"Point","coordinates":[21,7]},"properties":{"country":"Central African Republic","cases":15440,"deaths":113,"recovered":15200,"cfr":0.73}},{"type":"Feature","geometry":{"type":"Point","coordinates":[19,15]},"properties":{"country":"Chad","cases":7701,"deaths":194,"recovered":4874,"cfr":2.52}},{"type":"Feature","geometry":{"type":"Point","coordinates":[-2.13,49.21]},"properties":{"country":"Channel Islands","cases":101717,"deaths":228,"recovered":101321,"cfr":0.22}},{"type":"Feature","geometry":{"type":"Point","coordinates":[-71,-30]},"properties":{"country":"Chile","cases":5384853,"deaths":64497,"recovered":5252450,"cfr":1.2}},{"type":"Feature","geometry":{"type":"Point","coordinates":[105,35]},"properties":{"country":"China","cases":503302,"deaths":5272,"recovered":379053,"cfr":1.05}},{"type":"Feature","geometry":{"type":"Point","coordinates":[-72,4]},"properties":{"country":"Colombia","cases":6400173,"deaths":143200,"recovered":6212152,"cfr":2.24}},{"type":"Feature","geometry":{"type":"Point","coordinates":[44.25,-12.1667]},"properties":{"country":"Comoros","cases":9109,"deaths":161,"recovered":8939,"cfr":1.77}},{"type":"Feature","geometry":{"type":"Point","coordinates":[15,-1]},"properties":{"country":"Congo","cases":25375,"deaths":386,"recovered":24006,"cfr":1.52}},{"type":"Feature","geometry":{"type":"Point","coordinates":[-159.7667,-21.2333]},"properties":{"country":"Cook Islands","cases":7203,"deaths":2,"recovered":7150,"cfr":0.03}},{"type":"Feature","geometry":{"type":"Point","coordinates":[-84,10]},"properties":{"country":"Costa Rica","cases":1238883,"deaths":9428,"recovered":0,"cfr":0.76}},{"type":"Feature","geometry":{"type":"Point","coordinates":[15.5,45.1667]},"properties":{"country":"Croatia","cases":1309728,"deaths":18687,"recovered":1258432,"cfr":1.43}},{"type":"Feature","geometry":{"type":"Point","coordinates":[-80,21.5]},"properties":{"country":"Cuba","cases":1115251,"deaths":8530,"recovered":1106660,"cfr":0.76}},{"type":"Feature","geometry":{"type":"Point","coordinates":[-68.97,12.15]},"properties":{"country":"Cura\u00e7ao","cases":45986,"deaths":295,"recovered":44720,"cfr":0.64}},{"type":"Feature","geometry":{"type":"Point","coordinates":[33,35]},"properties":{"country":"Cyprus","cases":681110,"deaths":1365,"recovered":679745,"cfr":0.2}},{"type":"Feature","geometry":{"type":"Point","coordinates":[15.5,49.75]},"properties":{"country":"Czechia","cases":4759041,"deaths":43517,"recovered":4715206,"cfr":0.91}},{"type":"Feature","geometry":{"type":"Point","coordinates":[-5,8]},"properties":{"country":"C\u00f4te d'Ivoire","cases":88384,"deaths":835,"recovered":87497,"cfr":0.94}},{"type":"Feature","geometry":{"type":"Point","coordinates":[25,0]},"properties":{"country":"DRC","cases":99338,"deaths":1468,"recovered":84489,"cfr":1.48}},{"type":"Feature","geometry":{"type":"Point","coordinates":[10,56]},"properties":{"country":"Denmark","cases":3183756,"deaths":8814,"recovered":3174942,"cfr":0.28}},{"type":"Feature","geometry":{"type":"Point","coordinates":[0,0]},"properties":{"country":"Diamond Princess","cases":712,"deaths":13,"recovered":699,"cfr":1.83}},{"type":"Feature","geometry":{"type":"Point","coordinates":[43,11.5]},"properties":{"country":"Djibouti","cases":15690,"deaths":189,"recovered":15427,"cfr":1.2}},{"type":"Feature","geometry":{"type":"Point","coordinates":[-61.3333,15.4167]},"properties":{"country":"Dominica","cases":16038,"deaths":74,"recovered":15964,"cfr":0.46}},{"type":"Feature","geometry":{"type":"Point","coordinates":[-70.6667,19]},"properties":{"country":"Dominican Republic","cases":675890,"deaths":4384,"recovered":671316,"cfr":0.65}},{"type":"Feature","geometry":{"type":"Point","coordinates":[-77.5,-2]},"properties":{"country":"Ecuador","cases":1070188,"deaths":36043,"recovered":1034145,"cfr":3.37}},{"type":"Feature","geometry":{"type":"Point","coordinates":[30,27]},"properties":{"country":"Egypt","cases":516023,"deaths":24613,"recovered":442182,"cfr":4.77}},{"type":"Feature","geometry":{"type":"Point","coordinates":[-88.9167,13.8333]},"properties":{"country":"El Salvador","cases":201855,"deaths":4230,"recovered":179410,"cfr":2.1}},{"type":"Feature","geometry":{"type":"Point","coordinates":[10,2]},"properties":{"country":"Equatorial Guinea","cases":17229,"deaths":183,"recovered":16907,"cfr":1.06}},{"type":"Feature","geometry":{"type":"Point","coordinates":[39,15]},"properties":{"country":"Eritrea","cases":10189,"deaths":103,"recovered":10086,"cfr":1.01}},{"type":"Feature","geometry":{"type":"Point","coordinates":[26,59]},"properties":{"country":"Estonia","cases":628070,"deaths":3001,"recovered":0,"cfr":0.48}},{"type":"Feature","geometry":{"type":"Point","coordinates":[38,8]},"properties":{"country":"Ethiopia","cases":501157,"deaths":7574,"recovered":488171,"cfr":1.51}},{"type":"Feature","geometry":{"type":"Point","coordinates":[-59,-51.75]},"properties":{"country":"Falkland Islands (Malvinas)","cases":1930,"deaths":0,"recovered":1930,"cfr":0.0}},{"type":"Feature","geometry":{"type":"Point","coordinates":[-7,62]},"properties":{"country":"Faroe Islands","cases":34658,"deaths":28,"recovered":0,"cfr":0.08}},{"type":"Feature","geometry":{"type":"Point","coordinates":[175,-18]},"properties":{"country":"Fiji","cases":69117,"deaths":885,"recovered":67226,"cfr":1.28}},{"type":"Feature","geometry":{"type":"Point","coordinates":[26,64]},"properties":{"country":"Finland","cases":1516117,"deaths":11958,"recovered":1503989,"cfr":0.79}},{"type":"Feature","geometry":{"type":"Point","coordinates":[2,46]},"properties":{"country":"France","cases":40138560,"deaths":167642,"recovered":39970918,"cfr":0.42}},{"type":"Feature","geometry":{"type":"Point","coordinates":[-53,4]},"properties":{"country":"French Guiana","cases":98041,"deaths":420,"recovered":11254,"cfr":0.43}},{"type":"Feature","geometry":{"type":"Point","coordinates":[-140,-15]},"properties":{"country":"French Polynesia","cases":79254,"deaths":650,"recovered":0,"cfr":0.82}},{"type":"Feature","geometry":{"type":"Point","coordinates":[11.75,-1]},"properties":{"country":"Gabon","cases":49051,"deaths":307,"recovered":48674,"cfr":0.63}},{"type":"Feature","geometry":{"type":"Point","coordinates":[-16.5667,13.4667]},"properties":{"country":"Gambia","cases":12626,"deaths":372,"recovered":12189,"cfr":2.95}},{"type":"Feature","geometry":{"type":"Point","coordinates":[43.5,42]},"properties":{"country":"Georgia","cases":1861665,"deaths":17132,"recovered":0,"cfr":0.92}},{"type":"Feature","geometry":{"type":"Point","coordinates":[9,51]},"properties":{"country":"Germany","cases":38828995,"deaths":183027,"recovered":38240600,"cfr":0.47}},{"type":"Feature","geometry":{"type":"Point","coordinates":[-2,8]},"properties":{"country":"Ghana","cases":171889,"deaths":1462,"recovered":170425,"cfr":0.85}},{"type":"Feature","geometry":{"type":"Point","coordinates":[-5.3667,36.1833]},"properties":{"country":"Gibraltar","cases":20550,"deaths":113,"recovered":0,"cfr":0.55}},{"type":"Feature","geometry":{"type":"Point","coordinates":[22,39]},"properties":{"country":"Greece","cases":6101379,"deaths":37869,"recovered":0,"cfr":0.62}},{"type":"Feature","geometry":{"type":"Point","coordinates":[-40,72]},"properties":{"country":"Greenland","cases":11971,"deaths":21,"recovered":2761,"cfr":0.18}},{"type":"Feature","geometry":{"type":"Point","coordinates":[-61.6667,12.1167]},"properties":{"country":"Grenada","cases":19693,"deaths":238,"recovered":19358,"cfr":1.21}},{"type":"Feature","geometry":{"type":"Point","coordinates":[-61.5833,16.25]},"properties":{"country":"Guadeloupe","cases":203235,"deaths":1021,"recovered":0,"cfr":0.5}},{"type":"Feature","geometry":{"type":"Point","coordinates":[-90.25,15.5]},"properties":{"country":"Guatemala","cases":1291293,"deaths":20289,"recovered":1269891,"cfr":1.57}},{"type":"Feature","geometry":{"type":"Point","coordinates":[-10,11]},"properties":{"country":"Guinea","cases":38572,"deaths":468,"recovered":37757,"cfr":1.21}},{"type":"Feature","geometry":{"type":"Point","coordinates":[-15,12]},"properties":{"country":"Guinea-Bissau","cases":9614,"deaths":177,"recovered":8929,"cfr":1.84}},{"type":"Feature","geometry":{"type":"Point","coordinates":[-59,5]},"properties":{"country":"Guyana","cases":74137,"deaths":1300,"recovered":72013,"cfr":1.75}},{"type":"Feature","geometry":{"type":"Point","coordinates":[-72.4167,19]},"properties":{"country":"Haiti","cases":34667,"deaths":860,"recovered":33734,"cfr":2.48}},{"type":"Feature","geometry":{"type":"Point","coordinates":[12.45,41.9]},"properties":{"country":"Holy See (Vatican City State)","cases":29,"deaths":0,"recovered":29,"cfr":0.0}},{"type":"Feature","geometry":{"type":"Point","coordinates":[-86.5,15]},"properties":{"country":"Honduras","cases":474590,"deaths":11165,"recovered":0,"cfr":2.35}},{"type":"Feature","geometry":{"type":"Point","coordinates":[114.1667,22.25]},"properties":{"country":"Hong Kong","cases":2937609,"deaths":14924,"recovered":2916005,"cfr":0.51}},{"type":"Feature","geometry":{"type":"Point","coordinates":[20,47]},"properties":{"country":"Hungary","cases":2230232,"deaths":49048,"recovered":2152155,"cfr":2.2}},{"type":"Feature","geometry":{"type":"Point","coordinates":[-18,65]},"properties":{"country":"Iceland","cases":209906,"deaths":229,"recovered":0,"cfr":0.11}},{"type":"Feature","geometry":{"type":"Point","coordinates":[77,20]},"properties":{"country":"India","cases":45035393,"deaths":533570,"recovered":0,"cfr":1.18}},{"type":"Feature","geometry":{"type":"Point","coordinates":[120,-5]},"properties":{"country":"Indonesia","cases":6829221,"deaths":162063,"recovered":6647104,"cfr":2.37}},{"type":"Feature","geometry":{"type":"Point","coordinates":[53,32]},"properties":{"country":"Iran","cases":7627186,"deaths":146811,"recovered":0,"cfr":1.92}},{"type":"Feature","geometry":{"type":"Point","coordinates":[44,33]},"properties":{"country":"Iraq","cases":2465545,"deaths":25375,"recovered":2439497,"cfr":1.03}},{"type":"Feature","geometry":{"type":"Point","coordinates":[-8,53]},"properties":{"country":"Ireland","cases":1734582,"deaths":9491,"recovered":1724921,"cfr":0.55}},{"type":"Feature","geometry":{"type":"Point","coordinates":[-4.55,54.23]},"properties":{"country":"Isle of Man","cases":38008,"deaths":116,"recovered":0,"cfr":0.31}},{"type":"Feature","geometry":{"type":"Point","coordinates":[34.75,31.5]},"properties":{"country":"Israel","cases":4841772,"deaths":12707,"recovered":4798473,"cfr":0.26}},{"type":"Feature","geometry":{"type":"Point","coordinates":[12.8333,42.8333]},"properties":{"country":"Italy","cases":26723249,"deaths":196487,"recovered":26361218,"cfr":0.74}},{"type":"Feature","geometry":{"type":"Point","coordinates":[-77.5,18.25]},"properties":{"country":"Jamaica","cases":156869,"deaths":3756,"recovered":0,"cfr":2.39}},{"type":"Feature","geometry":{"type":"Point","coordinates":[138,36]},"properties":{"country":"Japan","cases":33803572,"deaths":74694,"recovered":0,"cfr":0.22}},{"type":"Feature","geometry":{"type":"Point","coordinates":[36,31]},"properties":{"country":"Jordan","cases":1746997,"deaths":14122,"recovered":1731007,"cfr":0.81}},{"type":"Feature","geometry":{"type":"Point","coordinates":[68,48]},"properties":{"country":"Kazakhstan","cases":1411831,"deaths":13848,"recovered":1383020,"cfr":0.98}},{"type":"Feature","geometry":{"type":"Point","coordinates":[38,1]},"properties":{"country":"Kenya","cases":344130,"deaths":5689,"recovered":337309,"cfr":1.65}},{"type":"Feature","geometry":{"type":"Point","coordinates":[173,1.4167]},"properties":{"country":"Kiribati","cases":5085,"deaths":24,"recovered":2703,"cfr":0.47}},{"type":"Feature","geometry":{"type":"Point","coordinates":[47.6581,29.3375]},"properties":{"country":"Kuwait","cases":667158,"deaths":2570,"recovered":0,"cfr":0.39}},{"type":"Feature","geometry":{"type":"Point","coordinates":[75,41]},"properties":{"country":"Kyrgyzstan","cases":206897,"deaths":2991,"recovered":196406,"cfr":1.45}},{"type":"Feature","geometry":{"type":"Point","coordinates":[105,18]},"properties":{"country":"Lao People's Democratic Republic","cases":218970,"deaths":758,"recovered":0,"cfr":0.35}},{"type":"Feature","geometry":{"type":"Point","coordinates":[25,57]},"properties":{"country":"Latvia","cases":982505,"deaths":6715,"recovered":971406,"cfr":0.68}},{"type":"Feature","geometry":{"type":"Point","coordinates":[35.8333,33.8333]},"properties":{"country":"Lebanon","cases":1243838,"deaths":10952,"recovered":1087587,"cfr":0.88}},{"type":"Feature","geometry":{"type":"Point","coordinates":[28.5,-29.5]},"properties":{"country":"Lesotho","cases":36138,"deaths":723,"recovered":25980,"cfr":2.0}},{"type":"Feature","geometry":{"type":"Point","coordinates":[-9.5,6.5]},"properties":{"country":"Liberia","cases":8090,"deaths":295,"recovered":7783,"cfr":3.65}},{"type":"Feature","geometry":{"type":"Point","coordinates":[17,25]},"properties":{"country":"Libyan Arab Jamahiriya","cases":507274,"deaths":6437,"recovered":500835,"cfr":1.27}},{"type":"Feature","geometry":{"type":"Point","coordinates":[9.5333,47.1667]},"properties":{"country":"Liechtenstein","cases":21574,"deaths":94,"recovered":0,"cfr":0.44}},{"type":"Feature","geometry":{"type":"Point","coordinates":[24,56]},"properties":{"country":"Lithuania","cases":1397806,"deaths":9897,"recovered":1387478,"cfr":0.71}},{"type":"Feature","geometry":{"type":"Point","coordinates":[6.1667,49.75]},"properties":{"country":"Luxembourg","cases":391232,"deaths":1232,"recovered":0,"cfr":0.31}},{"type":"Feature","geometry":{"type":"Point","coordinates":[0,0]},"properties":{"country":"MS Zaandam","cases":9,"deaths":2,"recovered":7,"cfr":22.22}},{"type":"Feature","geometry":{"type":"Point","coordinates":[113.55,22.1667]},"properties":{"country":"Macao","cases":27673,"deaths":123,"recovered":3487,"cfr":0.44}},{"type":"Feature","geometry":{"type":"Point","coordinates":[22,41.8333]},"properties":{"country":"Macedonia","cases":350567,"deaths":9976,"recovered":337068,"cfr":2.85}},{"type":"Feature","geometry":{"type":"Point","coordinates":[47,-20]},"properties":{"country":"Madagascar","cases":68486,"deaths":1426,"recovered":66862,"cfr":2.08}},{"type":"Feature","geometry":{"type":"Point","coordinates":[34,-13.5]},"properties":{"country":"Malawi","cases":89535,"deaths":2686,"recovered":0,"cfr":3.0}},{"type":"Feature","geometry":{"type":"Point","coordinates":[112.5,2.5]},"properties":{"country":"Malaysia","cases":5278406,"deaths":37348,"recovered":5233268,"cfr":0.71}},{"type":"Feature","geometry":{"type":"Point","coordinates":[73,3.25]},"properties":{"country":"Maldives","cases":186694,"deaths":316,"recovered":163687,"cfr":0.17}},{"type":"Feature","geometry":{"type":"Point","coordinates":[-4,17]},"properties":{"country":"Mali","cases":33164,"deaths":743,"recovered":32332,"cfr":2.24}},{"type":"Feature","geometry":{"type":"Point","coordinates":[14.5833,35.8333]},"properties":{"country":"Malta","cases":121420,"deaths":885,"recovered":120149,"cfr":0.73}},{"type":"Feature","geometry":{"type":"Point","coordinates":[168,9]},"properties":{"country":"Marshall Islands","cases":16138,"deaths":17,"recovered":16121,"cfr":0.11}},{"type":"Feature","geometry":{"type":"Point","coordinates":[-61,14.6667]},"properties":{"country":"Martinique","cases":230354,"deaths":1102,"recovered":0,"cfr":0.48}},{"type":"Feature","geometry":{"type":"Point","coordinates":[-12,20]},"properties":{"country":"Mauritania","cases":63848,"deaths":997,"recovered":62471,"cfr":1.56}},{"type":"Feature","geometry":{"type":"Point","coordinates":[57.55,-20.2833]},"properties":{"country":"Mauritius","cases":43025,"deaths":1051,"recovered":41278,"cfr":2.44}},{"type":"Feature","geometry":{"type":"Point","coordinates":[45.1667,-12.8333]},"properties":{"country":"Mayotte","cases":42027,"deaths":188,"recovered":0,"cfr":0.45}},{"type":"Feature","geometry":{"type":"Point","coordinates":[-102,23]},"properties":{"country":"Mexico","cases":7702809,"deaths":334958,"recovered":6899865,"cfr":4.35}},{"type":"Feature","geometry":{"type":"Point","coordinates":[158.25,6.9167]},"properties":{"country":"Micronesia","cases":26547,"deaths":65,"recovered":0,"cfr":0.24}},{"type":"Feature","geometry":{"type":"Point","coordinates":[29,47]},"properties":{"country":"Moldova","cases":635145,"deaths":12218,"recovered":0,"cfr":1.92}},{"type":"Feature","geometry":{"type":"Point","coordinates":[7.4,43.7333]},"properties":{"country":"Monaco","cases":17181,"deaths":67,"recovered":0,"cfr":0.39}},{"type":"Feature","geometry":{"type":"Point","coordinates":[105,46]},"properties":{"country":"Mongolia","cases":1011496,"deaths":2284,"recovered":1009212,"cfr":0.23}},{"type":"Feature","geometry":{"type":"Point","coordinates":[19,42]},"properties":{"country":"Montenegro","cases":296542,"deaths":2846,"recovered":291794,"cfr":0.96}},{"type":"Feature","geometry":{"type":"Point","coordinates":[-62.2,16.75]},"properties":{"country":"Montserrat","cases":1403,"deaths":8,"recovered":1376,"cfr":0.57}},{"type":"Feature","geometry":{"type":"Point","coordinates":[-5,32]},"properties":{"country":"Morocco","cases":1278992,"deaths":16303,"recovered":0,"cfr":1.27}},{"type":"Feature","geometry":{"type":"Point","coordinates":[35,-18.25]},"properties":{"country":"Mozambique","cases":233731,"deaths":2250,"recovered":228805,"cfr":0.96}},{"type":"Feature","geometry":{"type":"Point","coordinates":[98,22]},"properties":{"country":"Myanmar","cases":641873,"deaths":19495,"recovered":620159,"cfr":3.04}},{"type":"Feature","geometry":{"type":"Point","coordinates":[127,40]},"properties":{"country":"N. Korea","cases":4772813,"deaths":74,"recovered":4772739,"cfr":0.0}},{"type":"Feature","geometry":{"type":"Point","coordinates":[17,-22]},"properties":{"country":"Namibia","cases":172389,"deaths":4106,"recovered":167099,"cfr":2.38}},{"type":"Feature","geometry":{"type":"Point","coordinates":[166.9167,-0.5333]},"properties":{"country":"Nauru","cases":5393,"deaths":1,"recovered":5347,"cfr":0.02}},{"type":"Feature","geometry":{"type":"Point","coordinates":[84,28]},"properties":{"country":"Nepal","cases":1003450,"deaths":12031,"recovered":991322,"cfr":1.2}},{"type":"Feature","geometry":{"type":"Point","coordinates":[5.75,52.5]},"properties":{"country":"Netherlands","cases":8635786,"deaths":22992,"recovered":8612599,"cfr":0.27}},{"type":"Feature","geometry":{"type":"Point","coordinates":[165.5,-21.5]},"properties":{"country":"New Caledonia","cases":80064,"deaths":314,"recovered":0,"cfr":0.39}},{"type":"Feature","geometry":{"type":"Point","coordinates":[174,-41]},"properties":{"country":"New Zealand","cases":2621111,"deaths":5697,"recovered":2613791,"cfr":0.22}},{"type":"Feature","geometry":{"type":"Point","coordinates":[-85,13]},"properties":{"country":"Nicaragua","cases":18491,"deaths":225,"recovered":4225,"cfr":1.22}},{"type":"Feature","geometry":{"type":"Point","coordinates":[8,16]},"properties":{"country":"Niger","cases":9931,"deaths":312,"recovered":8890,"cfr":3.14}},{"type":"Feature","geometry":{"type":"Point","coordinates":[8,10]},"properties":{"country":"Nigeria","cases":267188,"deaths":3155,"recovered":259953,"cfr":1.18}},{"type":"Feature","geometry":{"type":"Point","coordinates":[-169.8667,-19.0333]},"properties":{"country":"Niue","cases":1059,"deaths":0,"recovered":1056,"cfr":0.0}},{"type":"Feature","geometry":{"type":"Point","coordinates":[10,62]},"properties":{"country":"Norway","cases":1509732,"deaths":6638,"recovered":1503094,"cfr":0.44}},{"type":"Feature","geometry":{"type":"Point","coordinates":[57,21]},"properties":{"country":"Oman","cases":399449,"deaths":4628,"recovered":0,"cfr":1.16}},{"type":"Feature","geometry":{"type":"Point","coordinates":[70,30]},"properties":{"country":"Pakistan","cases":1581936,"deaths":30664,"recovered":1538689,"cfr":1.94}},{"type":"Feature","geometry":{"type":"Point","coordinates":[134.5,7.5]},"properties":{"country":"Palau","cases":6290,"deaths":10,"recovered":6276,"cfr":0.16}},{"type":"Feature","geometry":{"type":"Point","coordinates":[35.25,32]},"properties":{"country":"Palestine","cases":621008,"deaths":5404,"recovered":615445,"cfr":0.87}},{"type":"Feature","geometry":{"type":"Point","coordinates":[-80,9]},"properties":{"country":"Panama","cases":1059893,"deaths":8727,"recovered":1051102,"cfr":0.82}},{"type":"Feature","geometry":{"type":"Point","coordinates":[147,-6]},"properties":{"country":"Papua New Guinea","cases":46864,"deaths":670,"recovered":46168,"cfr":1.43}},{"type":"Feature","geometry":{"type":"Point","coordinates":[-58,-23]},"properties":{"country":"Paraguay","cases":837602,"deaths":20155,"recovered":0,"cfr":2.41}},{"type":"Feature","geometry":{"type":"Point","coordinates":[-76,-10]},"properties":{"country":"Peru","cases":4572667,"deaths":222161,"recovered":4350506,"cfr":4.86}},{"type":"Feature","geometry":{"type":"Point","coordinates":[122,13]},"properties":{"country":"Philippines","cases":4140383,"deaths":66864,"recovered":4067381,"cfr":1.61}},{"type":"Feature","geometry":{"type":"Point","coordinates":[20,52]},"properties":{"country":"Poland","cases":6661991,"deaths":120598,"recovered":0,"cfr":1.81}},{"type":"Feature","geometry":{"type":"Point","coordinates":[-8,39.5]},"properties":{"country":"Portugal","cases":5643062,"deaths":28126,"recovered":5614809,"cfr":0.5}},{"type":"Feature","geometry":{"type":"Point","coordinates":[51.25,25.5]},"properties":{"country":"Qatar","cases":514524,"deaths":690,"recovered":513687,"cfr":0.13}},{"type":"Feature","geometry":{"type":"Point","coordinates":[25,46]},"properties":{"country":"Romania","cases":3529735,"deaths":68929,"recovered":3460149,"cfr":1.95}},{"type":"Feature","geometry":{"type":"Point","coordinates":[100,60]},"properties":{"country":"Russia","cases":24124215,"deaths":402756,"recovered":23545818,"cfr":1.67}},{"type":"Feature","geometry":{"type":"Point","coordinates":[30,-2]},"properties":{"country":"Rwanda","cases":133518,"deaths":1468,"recovered":132039,"cfr":1.1}},{"type":"Feature","geometry":{"type":"Point","coordinates":[55.6,-21.1]},"properties":{"country":"R\u00e9union","cases":494595,"deaths":921,"recovered":0,"cfr":0.19}},{"type":"Feature","geometry":{"type":"Point","coordinates":[127.5,37]},"properties":{"country":"S. Korea","cases":34571873,"deaths":35934,"recovered":34535939,"cfr":0.1}},{"type":"Feature","geometry":{"type":"Point","coordinates":[-5.7,-15.9333]},"properties":{"country":"Saint Helena","cases":2166,"deaths":0,"recovered":2,"cfr":0.0}},{"type":"Feature","geometry":{"type":"Point","coordinates":[-62.75,17.3333]},"properties":{"country":"Saint Kitts and Nevis","cases":6607,"deaths":48,"recovered":6559,"cfr":0.73}},{"type":"Feature","geometry":{"type":"Point","coordinates":[-61.1333,13.8833]},"properties":{"country":"Saint Lucia","cases":30215,"deaths":410,"recovered":29805,"cfr":1.36}},{"type":"Feature","geometry":{"type":"Point","coordinates":[-63.03,18.11]},"properties":{"country":"Saint Martin","cases":12324,"deaths":63,"recovered":0,"cfr":0.51}},{"type":"Feature","geometry":{"type":"Point","coordinates":[-56.3333,46.8333]},"properties":{"country":"Saint Pierre Miquelon","cases":3452,"deaths":2,"recovered":2449,"cfr":0.06}},{"type":"Feature","geometry":{"type":"Point","coordinates":[-61.2,13.25]},"properties":{"country":"Saint Vincent and the Grenadines","cases":9674,"deaths":124,"recovered":9493,"cfr":1.28}},{"type":"Feature","geometry":{"type":"Point","coordinates":[-172.3333,-13.5833]},"properties":{"country":"Samoa","cases":17006,"deaths":31,"recovered":1605,"cfr":0.18}},{"type":"Feature","geometry":{"type":"Point","coordinates":[12.4167,43.7667]},"properties":{"country":"San Marino","cases":26185,"deaths":128,"recovered":26011,"cfr":0.49}},{"type":"Feature","geometry":{"type":"Point","coordinates":[7,1]},"properties":{"country":"Sao Tome and Principe","cases":6778,"deaths":80,"recovered":6685,"cfr":1.18}},{"type":"Feature","geometry":{"type":"Point","coordinates":[45,25]},"properties":{"country":"Saudi Arabia","cases":841469,"deaths":9646,"recovered":0,"cfr":1.15}},{"type":"Feature","geometry":{"type":"Point","coordinates":[-14,14]},"properties":{"country":"Senegal","cases":89053,"deaths":1971,"recovered":87024,"cfr":2.21}},{"type":"Feature","geometry":{"type":"Point","coordinates":[21,44]},"properties":{"country":"Serbia","cases":2615054,"deaths":18057,"recovered":2596608,"cfr":0.69}},{"type":"Feature","geometry":{"type":"Point","coordinates":[55.6667,-4.5833]},"properties":{"country":"Seychelles","cases":51220,"deaths":172,"recovered":51048,"cfr":0.34}},{"type":"Feature","geometry":{"type":"Point","coordinates":[-11.5,8.5]},"properties":{"country":"Sierra Leone","cases":7779,"deaths":126,"recovered":0,"cfr":1.62}},{"type":"Feature","geometry":{"type":"Point","coordinates":[103.8,1.3667]},"properties":{"country":"Singapore","cases":3006155,"deaths":2024,"recovered":3004131,"cfr":0.07}},{"type":"Feature","geometry":{"type":"Point","coordinates":[-63.06,18.02]},"properties":{"country":"Sint Maarten","cases":11051,"deaths":92,"recovered":10905,"cfr":0.83}},{"type":"Feature","geometry":{"type":"Point","coordinates":[19.5,48.6667]},"properties":{"country":"Slovakia","cases":1877605,"deaths":21224,"recovered":1856381,"cfr":1.13}},{"type":"Feature","geometry":{"type":"Point","coordinates":[15,46]},"properties":{"country":"Slovenia","cases":1356546,"deaths":7100,"recovered":1349424,"cfr":0.52}},{"type":"Feature","geometry":{"type":"Point","coordinates":[159,-8]},"properties":{"country":"Solomon Islands","cases":25954,"deaths":199,"recovered":0,"cfr":0.77}},{"type":"Feature","geometry":{"type":"Point","coordinates":[49,10]},"properties":{"country":"Somalia","cases":27334,"deaths":1361,"recovered":13182,"cfr":4.98}},{"type":"Feature","geometry":{"type":"Point","coordinates":[24,-29]},"properties":{"country":"South Africa","cases":4076463,"deaths":102595,"recovered":3912506,"cfr":2.52}},{"type":"Feature","geometry":{"type":"Point","coordinates":[31.3069,6.8769]},"properties":{"country":"South Sudan","cases":18819,"deaths":147,"recovered":18115,"cfr":0.78}},{"type":"Feature","geometry":{"type":"Point","coordinates":[-4,40]},"properties":{"country":"Spain","cases":13914811,"deaths":121760,"recovered":13762417,"cfr":0.88}},{"type":"Feature","geometry":{"type":"Point","coordinates":[81,7]},"properties":{"country":"Sri Lanka","cases":672754,"deaths":16897,"recovered":655852,"cfr":2.51}},{"type":"Feature","geometry":{"type":"Point","coordinates":[-62.82,17.89]},"properties":{"country":"St. Barth","cases":5507,"deaths":6,"recovered":0,"cfr":0.11}},{"type":"Feature","geometry":{"type":"Point","coordinates":[30,15]},"properties":{"country":"Sudan","cases":63993,"deaths":5046,"recovered":58947,"cfr":7.89}},{"type":"Feature","geometry":{"type":"Point","coordinates":[-56,4]},"properties":{"country":"Suriname","cases":82588,"deaths":1408,"recovered":0,"cfr":1.7}},{"type":"Feature","geometry":{"type":"Point","coordinates":[31.5,-26.5]},"properties":{"country":"Swaziland","cases":75191,"deaths":1427,"recovered":73116,"cfr":1.9}},{"type":"Feature","geometry":{"type":"Point","coordinates":[15,62]},"properties":{"country":"Sweden","cases":2754129,"deaths":27407,"recovered":2726492,"cfr":1.0}},{"type":"Feature","geometry":{"type":"Point","coordinates":[8,47]},"properties":{"country":"Switzerland","cases":4453053,"deaths":14452,"recovered":4438309,"cfr":0.32}},{"type":"Feature","geometry":{"type":"Point","coordinates":[38,35]},"properties":{"country":"Syrian Arab Republic","cases":57743,"deaths":3165,"recovered":54578,"cfr":5.48}},{"type":"Feature","geometry":{"type":"Point","coordinates":[121,23.5]},"properties":{"country":"Taiwan","cases":10241523,"deaths":19005,"recovered":10222518,"cfr":0.19}},{"type":"Feature","geometry":{"type":"Point","coordinates":[71,39]},"properties":{"country":"Tajikistan","cases":17786,"deaths":125,"recovered":17264,"cfr":0.7}},{"type":"Feature","geometry":{"type":"Point","coordinates":[35,-6]},"properties":{"country":"Tanzania","cases":43223,"deaths":846,"recovered":0,"cfr":1.96}},{"type":"Feature","geometry":{"type":"Point","coordinates":[100,15]},"properties":{"country":"Thailand","cases":4770149,"deaths":34586,"recovered":4692636,"cfr":0.73}},{"type":"Feature","geometry":{"type":"Point","coordinates":[125.5167,-8.55]},"properties":{"country":"Timor-Leste","cases":23460,"deaths":138,"recovered":23102,"cfr":0.59}},{"type":"Feature","geometry":{"type":"Point","coordinates":[1.1667,8]},"properties":{"country":"Togo","cases":39572,"deaths":290,"recovered":39281,"cfr":0.73}},{"type":"Feature","geometry":{"type":"Point","coordinates":[-172,-9]},"properties":{"country":"Tokelau","cases":80,"deaths":0,"recovered":0,"cfr":0.0}},{"type":"Feature","geometry":{"type":"Point","coordinates":[-175,-20]},"properties":{"country":"Tonga","cases":16950,"deaths":13,"recovered":15638,"cfr":0.08}},{"type":"Feature","geometry":{"type":"Point","coordinates":[-61,11]},"properties":{"country":"Trinidad and Tobago","cases":191496,"deaths":4390,"recovered":187078,"cfr":2.29}},{"type":"Feature","geometry":{"type":"Point","coordinates":[9,34]},"properties":{"country":"Tunisia","cases":1153361,"deaths":29423,"recovered":0,"cfr":2.55}},{"type":"Feature","geometry":{"type":"Point","coordinates":[35,39]},"properties":{"country":"Turkey","cases":17232066,"deaths":102174,"recovered":0,"cfr":0.59}},{"type":"Feature","geometry":{"type":"Point","coordinates":[-71.5833,21.75]},"properties":{"country":"Turks and Caicos Islands","cases":6752,"deaths":40,"recovered":6709,"cfr":0.59}},{"type":"Feature","geometry":{"type":"Point","coordinates":[178,-8]},"properties":{"country":"Tuvalu","cases":2943,"deaths":1,"recovered":0,"cfr":0.03}},{"type":"Feature","geometry":{"type":"Point","coordinates":[54,24]},"properties":{"country":"UAE","cases":1067030,"deaths":2349,"recovered":0,"cfr":0.22}},{"type":"Feature","geometry":{"type":"Point","coordinates":[-2,54]},"properties":{"country":"UK","cases":24910387,"deaths":232112,"recovered":24678275,"cfr":0.93}},{"type":"Feature","geometry":{"type":"Point","coordinates":[-97,38]},"properties":{"country":"USA","cases":111820082,"deaths":1219487,"recovered":109814428,"cfr":1.09}},{"type":"Feature","geometry":{"type":"Point","coordinates":[32,1]},"properties":{"country":"Uganda","cases":172149,"deaths":3632,"recovered":100431,"cfr":2.11}},{"type":"Feature","geometry":{"type":"Point","coordinates":[32,49]},"properties":{"country":"Ukraine","cases":5557995,"deaths":112418,"recovered":5445577,"cfr":2.02}},{"type":"Feature","geometry":{"type":"Point","coordinates":[-56,-33]},"properties":{"country":"Uruguay","cases":1041111,"deaths":7664,"recovered":1030944,"cfr":0.74}},{"type":"Feature","geometry":{"type":"Point","coordinates":[64,41]},"properties":{"country":"Uzbekistan","cases":253662,"deaths":1637,"recovered":241486,"cfr":0.65}},{"type":"Feature","geometry":{"type":"Point","coordinates":[167,-16]},"properties":{"country":"Vanuatu","cases":12019,"deaths":14,"recovered":11976,"cfr":0.12}},{"type":"Feature","geometry":{"type":"Point","coordinates":[-66,8]},"properties":{"country":"Venezuela","cases":552695,"deaths":5856,"recovered":546537,"cfr":1.06}},{"type":"Feature","geometry":{"type":"Point","coordinates":[105.8,21]},"properties":{"country":"Vietnam","cases":11625195,"deaths":43206,"recovered":10640971,"cfr":0.37}},{"type":"Feature","geometry":{"type":"Point","coordinates":[-176.2,-13.3]},"properties":{"country":"Wallis and Futuna","cases":3550,"deaths":8,"recovered":438,"cfr":0.23}},{"type":"Feature","geometry":{"type":"Point","coordinates":[-13,24.5]},"properties":{"country":"Western Sahara","cases":10,"deaths":1,"recovered":9,"cfr":10.0}},{"type":"Feature","geometry":{"type":"Point","coordinates":[48,15]},"properties":{"country":"Yemen","cases":11945,"deaths":2159,"recovered":9124,"cfr":18.07}},{"type":"Feature","geometry":{"type":"Point","coordinates":[30,-15]},"properties":{"country":"Zambia","cases":349304,"deaths":4069,"recovered":341316,"cfr":1.16}},{"type":"Feature","geometry":{"type":"Point","coordinates":[30,-20]},"properties":{"country":"Zimbabwe","cases":266359,"deaths":5740,"recovered":258888,"cfr":2.15}}]}