{"type":"FeatureCollection","features":[{"type":"Feature","geometry":{"type":"Point","coordinates":[138.5941,37.4259]},"properties":{"name":"Kashiwazaki Kariwa","country":"Japan","mw":8212,"year":null,"owner":"Tokyo"}},{"type":"Feature","geometry":{"type":"Point","coordinates":[34.5863,47.5119]},"properties":{"name":"Zaporozhye","country":"Ukraine","mw":6000,"year":null,"owner":"Energoatom"}},{"type":"Feature","geometry":{"type":"Point","coordinates":[126.4175,35.4105]},"properties":{"name":"Hanbit","country":"South Korea","mw":5900,"year":null,"owner":"Korea Hydro and Nuclear"}},{"type":"Feature","geometry":{"type":"Point","coordinates":[129.383,37.0931]},"properties":{"name":"Hanul","country":"South Korea","mw":5900,"year":null,"owner":"Korea Hydro and Nuclear"}},{"type":"Feature","geometry":{"type":"Point","coordinates":[2.1332,51.0141]},"properties":{"name":"GRAVELINES","country":"France","mw":5460,"year":null,"owner":""}},{"type":"Feature","geometry":{"type":"Point","coordinates":[0.6354,49.8582]},"properties":{"name":"PALUEL","country":"France","mw":5320,"year":null,"owner":""}},{"type":"Feature","geometry":{"type":"Point","coordinates":[6.2169,49.416]},"properties":{"name":"CATTENOM","country":"France","mw":5200,"year":null,"owner":""}},{"type":"Feature","geometry":{"type":"Point","coordinates":[135.6544,35.5424]},"properties":{"name":"Ohi","country":"Japan","mw":4710,"year":null,"owner":"Kansai"}},{"type":"Feature","geometry":{"type":"Point","coordinates":[141.0265,37.3164]},"properties":{"name":"Fukushima Daina","country":"Japan","mw":4400,"year":null,"owner":"Tokyo"}},{"type":"Feature","geometry":{"type":"Point","coordinates":[-112.8617,33.3881]},"properties":{"name":"Palo Verde","country":"United States of America","mw":4210,"year":1986,"owner":"Arizona Public Service Co"}},{"type":"Feature","geometry":{"type":"Point","coordinates":[121.48,39.8]},"properties":{"name":"Hongyanhe","country":"China","mw":4183,"year":null,"owner":""}},{"type":"Feature","geometry":{"type":"Point","coordinates":[120.9501,30.433]},"properties":{"name":"Qinshan 2","country":"China","mw":4101,"year":null,"owner":""}},{"type":"Feature","geometry":{"type":"Point","coordinates":[120.2855,27.0446]},"properties":{"name":"Ningde","country":"China","mw":4072,"year":null,"owner":""}},{"type":"Feature","geometry":{"type":"Point","coordinates":[119.444,25.4426]},"properties":{"name":"Fuqing","country":"China","mw":4000,"year":null,"owner":""}},{"type":"Feature","geometry":{"type":"Point","coordinates":[112.26,21.71]},"properties":{"name":"Yangjiang","country":"China","mw":4000,"year":null,"owner":""}},{"type":"Feature","geometry":{"type":"Point","coordinates":[47.9539,52.0928]},"properties":{"name":"Balakovo NPP","country":"Russia","mw":4000,"year":null,"owner":"JSC \"Concern Rosenergoatom\""}},{"type":"Feature","geometry":{"type":"Point","coordinates":[35.0614,57.905]},"properties":{"name":"Kalinn NPP","country":"Russia","mw":4000,"year":null,"owner":"JSC \"Concern Rosenergoatom\""}},{"type":"Feature","geometry":{"type":"Point","coordinates":[35.6056,51.675]},"properties":{"name":"Kursk","country":"Russia","mw":4000,"year":null,"owner":"JSC \"Concern Rosenergoatom\""}},{"type":"Feature","geometry":{"type":"Point","coordinates":[29.0486,59.8528]},"properties":{"name":"Leningrad NPP","country":"Russia","mw":4000,"year":null,"owner":"JSC \"Concern Rosenergoatom\""}},{"type":"Feature","geometry":{"type":"Point","coordinates":[42.3717,47.5993]},"properties":{"name":"Rostov NPP","country":"Russia","mw":4000,"year":2001,"owner":"Rosatom"}},{"type":"Feature","geometry":{"type":"Point","coordinates":[12.1087,57.2574]},"properties":{"name":"Ringhals","country":"Sweden","mw":3932,"year":null,"owner":"70.4% Vattenfall; 29.6% Karnkraft Sverige"}},{"type":"Feature","geometry":{"type":"Point","coordinates":[114.55,22.6]},"properties":{"name":"Ling Ao","country":"China","mw":3914,"year":null,"owner":""}},{"type":"Feature","geometry":{"type":"Point","coordinates":[-78.7239,43.8697]},"properties":{"name":"Darlington","country":"Canada","mw":3740,"year":null,"owner":""}},{"type":"Feature","geometry":{"type":"Point","coordinates":[4.7546,44.6325]},"properties":{"name":"CRUAS","country":"France","mw":3660,"year":null,"owner":""}},{"type":"Feature","geometry":{"type":"Point","coordinates":[4.7311,44.3311]},"properties":{"name":"TRICASTIN 1","country":"France","mw":3660,"year":null,"owner":""}},{"type":"Feature","geometry":{"type":"Point","coordinates":[-0.6932,45.256]},"properties":{"name":"BLAYAIS","country":"France","mw":3640,"year":null,"owner":""}},{"type":"Feature","geometry":{"type":"Point","coordinates":[0.1656,47.2254]},"properties":{"name":"CHINON","country":"France","mw":3620,"year":null,"owner":""}},{"type":"Feature","geometry":{"type":"Point","coordinates":[138.1421,34.6235]},"properties":{"name":"Hamaoka","country":"Japan","mw":3617,"year":null,"owner":"Chubu"}},{"type":"Feature","geometry":{"type":"Point","coordinates":[5.2706,45.7973]},"properties":{"name":"BUGEY","country":"France","mw":3580,"year":null,"owner":""}},{"type":"Feature","geometry":{"type":"Point","coordinates":[2.5185,47.7321]},"properties":{"name":"DAMPIERRE","country":"France","mw":3560,"year":null,"owner":""}},{"type":"Feature","geometry":{"type":"Point","coordinates":[-87.1189,34.7042]},"properties":{"name":"Browns Ferry","country":"United States of America","mw":3494,"year":1975,"owner":"Tennessee Valley Authority"}},{"type":"Feature","geometry":{"type":"Point","coordinates":[129.836,33.5152]},"properties":{"name":"Genkai","country":"Japan","mw":3478,"year":null,"owner":"Kyushu"}},{"type":"Feature","geometry":{"type":"Point","coordinates":[135.5036,35.5223]},"properties":{"name":"Takahama","country":"Japan","mw":3392,"year":null,"owner":"Kansai"}},{"type":"Feature","geometry":{"type":"Point","coordinates":[-81.6027,44.319]},"properties":{"name":"Bruce B","country":"Canada","mw":3390,"year":null,"owner":"Bruce Power LP"}},{"type":"Feature","geometry":{"type":"Point","coordinates":[129.3017,35.3271]},"properties":{"name":"Shin-Kori","country":"South Korea","mw":3340,"year":null,"owner":"Korea Hydro and Nuclear"}},{"type":"Feature","geometry":{"type":"Point","coordinates":[18.1744,60.4028]},"properties":{"name":"Forsmark","country":"Sweden","mw":3227,"year":null,"owner":"65% Vattenfall; E.ON 8.5%; Mellansvensk Kraftgrupp 25.5%"}},{"type":"Feature","geometry":{"type":"Point","coordinates":[-81.5747,44.3391]},"properties":{"name":"Bruce A","country":"Canada","mw":3220,"year":null,"owner":"Bruce Power LP"}},{"type":"Feature","geometry":{"type":"Point","coordinates":[129.2948,35.3199]},"properties":{"name":"Kori","country":"South Korea","mw":3137,"year":null,"owner":"Korea Hydro and Nuclear"}},{"type":"Feature","geometry":{"type":"Point","coordinates":[4.7894,50.09]},"properties":{"name":"CHOOZ","country":"France","mw":3000,"year":null,"owner":""}},{"type":"Feature","geometry":{"type":"Point","coordinates":[33.2367,54.1647]},"properties":{"name":"Smolensk","country":"Russia","mw":3000,"year":null,"owner":"JSC \"Concern Rosenergoatom\""}},{"type":"Feature","geometry":{"type":"Point","coordinates":[31.22,47.812]},"properties":{"name":"South Ukraine","country":"Ukraine","mw":3000,"year":null,"owner":"Energoatom"}},{"type":"Feature","geometry":{"type":"Point","coordinates":[0.6548,46.4563]},"properties":{"name":"CIVAUX","country":"France","mw":2990,"year":null,"owner":""}},{"type":"Feature","geometry":{"type":"Point","coordinates":[4.2597,51.3254]},"properties":{"name":"DOEL 4","country":"Belgium","mw":2910,"year":1985,"owner":""}},{"type":"Feature","geometry":{"type":"Point","coordinates":[-76.2687,39.7589]},"properties":{"name":"Peach Bottom","country":"United States of America","mw":2876,"year":1974,"owner":"Exelon Nuclear"}},{"type":"Feature","geometry":{"type":"Point","coordinates":[-80.3308,25.4356]},"properties":{"name":"Turkey Point","country":"United States of America","mw":2861,"year":1987,"owner":"Florida Power & Light Co"}},{"type":"Feature","geometry":{"type":"Point","coordinates":[25.8974,51.3245]},"properties":{"name":"Rivne (Rouno)","country":"Ukraine","mw":2835,"year":null,"owner":"Energoatom"}},{"type":"Feature","geometry":{"type":"Point","coordinates":[129.4743,35.7111]},"properties":{"name":"Wolsong","country":"South Korea","mw":2799,"year":null,"owner":"Korea Hydro and Nuclear"}},{"type":"Feature","geometry":{"type":"Point","coordinates":[-96.0481,28.795]},"properties":{"name":"South Texas Project","country":"United States of America","mw":2709,"year":1988,"owner":"STP Nuclear Operating Co"}},{"type":"Feature","geometry":{"type":"Point","coordinates":[4.7554,45.4043]},"properties":{"name":"ST ALBAN","country":"France","mw":2670,"year":null,"owner":""}},{"type":"Feature","geometry":{"type":"Point","coordinates":[-82.8986,34.7939]},"properties":{"name":"Oconee","country":"United States of America","mw":2667,"year":1974,"owner":"Duke Energy Carolinas  LLC"}},{"type":"Feature","geometry":{"type":"Point","coordinates":[-1.8823,49.5366]},"properties":{"name":"FLAMANVILLE","country":"France","mw":2660,"year":null,"owner":""}},{"type":"Feature","geometry":{"type":"Point","coordinates":[1.2107,49.9764]},"properties":{"name":"PENLY","country":"France","mw":2660,"year":null,"owner":""}},{"type":"Feature","geometry":{"type":"Point","coordinates":[2.875,47.5103]},"properties":{"name":"BELLEVILLE","country":"France","mw":2620,"year":null,"owner":""}},{"type":"Feature","geometry":{"type":"Point","coordinates":[0.8443,44.106]},"properties":{"name":"GOLFECH","country":"France","mw":2620,"year":null,"owner":""}},{"type":"Feature","geometry":{"type":"Point","coordinates":[3.5181,48.5171]},"properties":{"name":"NOGENT","country":"France","mw":2620,"year":null,"owner":""}},{"type":"Feature","geometry":{"type":"Point","coordinates":[16.6683,57.413]},"properties":{"name":"Oskarshamn","country":"Sweden","mw":2603,"year":null,"owner":""}},{"type":"Feature","geometry":{"type":"Point","coordinates":[10.4016,48.515]},"properties":{"name":"Kernkraft Gundremmingen","country":"Germany","mw":2572,"year":1984,"owner":"Kernkraftwerk Gundremmingen GmbH (KGG)"}},{"type":"Feature","geometry":{"type":"Point","coordinates":[-84.7895,35.6021]},"properties":{"name":"Watts Bar Nuclear Plant","country":"United States of America","mw":2540,"year":2006,"owner":"Tennessee Valley Authority"}},{"type":"Feature","geometry":{"type":"Point","coordinates":[-76.1462,41.0919]},"properties":{"name":"TalenEnergy Susquehanna","country":"United States of America","mw":2532,"year":1984,"owner":"TalenEnergy Susquehanna LLC"}},{"type":"Feature","geometry":{"type":"Point","coordinates":[-88.2286,41.2435]},"properties":{"name":"Braidwood Generation Station","country":"United States of America","mw":2450,"year":1988,"owner":"Exelon Nuclear"}},{"type":"Feature","geometry":{"type":"Point","coordinates":[-89.2819,42.0742]},"properties":{"name":"Byron Generating Station","country":"United States of America","mw":2450,"year":1986,"owner":"Exelon Nuclear"}},{"type":"Feature","geometry":{"type":"Point","coordinates":[-80.9486,35.4331]},"properties":{"name":"McGuire","country":"United States of America","mw":2441,"year":1982,"owner":"Duke Energy Carolinas  LLC"}},{"type":"Feature","geometry":{"type":"Point","coordinates":[-85.0917,35.2267]},"properties":{"name":"Sequoyah","country":"United States of America","mw":2441,"year":1981,"owner":"Tennessee Valley Authority"}},{"type":"Feature","geometry":{"type":"Point","coordinates":[-97.7855,32.2984]},"properties":{"name":"Comanche Peak","country":"United States of America","mw":2430,"year":1991,"owner":"Luminant Generation Company LLC"}},{"type":"Feature","geometry":{"type":"Point","coordinates":[-81.7625,33.1427]},"properties":{"name":"Vogtle","country":"United States of America","mw":2430,"year":1988,"owner":"Georgia Power Co"}},{"type":"Feature","geometry":{"type":"Point","coordinates":[-81.0694,35.0514]},"properties":{"name":"Catawba","country":"United States of America","mw":2410,"year":1985,"owner":"Duke Energy Carolinas  LLC"}},{"type":"Feature","geometry":{"type":"Point","coordinates":[-75.5358,39.4625]},"properties":{"name":"PSEG Salem Generating Station","country":"United States of America","mw":2382,"year":1978,"owner":"PSEG Nuclear LLC"}},{"type":"Feature","geometry":{"type":"Point","coordinates":[-88.6691,41.2455]},"properties":{"name":"LaSalle Generating Station","country":"United States of America","mw":2340,"year":1984,"owner":"Exelon Nuclear"}},{"type":"Feature","geometry":{"type":"Point","coordinates":[-120.8555,35.2115]},"properties":{"name":"Diablo Canyon","country":"United States of America","mw":2323,"year":1985,"owner":"Pacific Gas & Electric Co."}},{"type":"Feature","geometry":{"type":"Point","coordinates":[-86.5652,41.9756]},"properties":{"name":"Donald C Cook","country":"United States of America","mw":2285,"year":1976,"owner":"Indiana Michigan Power Co"}},{"type":"Feature","geometry":{"type":"Point","coordinates":[-75.5874,40.2243]},"properties":{"name":"Limerick","country":"United States of America","mw":2277,"year":1988,"owner":"Exelon Nuclear"}},{"type":"Feature","geometry":{"type":"Point","coordinates":[141.5,38.4]},"properties":{"name":"Onagawa","country":"Japan","mw":2174,"year":null,"owner":"Tohoku"}},{"type":"Feature","geometry":{"type":"Point","coordinates":[-72.1677,41.3107]},"properties":{"name":"Millstone","country":"United States of America","mw":2163,"year":1981,"owner":"Dominion Energy Nuclear Conn Inc"}},{"type":"Feature","geometry":{"type":"Point","coordinates":[-79.0639,43.8096]},"properties":{"name":"Pickering B","country":"Canada","mw":2160,"year":null,"owner":""}},{"type":"Feature","geometry":{"type":"Point","coordinates":[-80.2464,27.3486]},"properties":{"name":"St Lucie","country":"United States of America","mw":2160,"year":1979,"owner":"Florida Power & Light Co"}},{"type":"Feature","geometry":{"type":"Point","coordinates":[14.3795,49.1796]},"properties":{"name":"Temelín","country":"Czech Republic","mw":2133,"year":2002,"owner":"CEZ Group"}},{"type":"Feature","geometry":{"type":"Point","coordinates":[5.2751,50.5342]},"properties":{"name":"TIHANGE 3","country":"Belgium","mw":2054,"year":1985,"owner":""}},{"type":"Feature","geometry":{"type":"Point","coordinates":[16.1479,49.0852]},"properties":{"name":"Dukonavy","country":"Czech Republic","mw":2040,"year":null,"owner":"CEZ Group"}},{"type":"Feature","geometry":{"type":"Point","coordinates":[121.6629,25.2025]},"properties":{"name":"Kuosheng","country":"Taiwan","mw":2040,"year":null,"owner":""}},{"type":"Feature","geometry":{"type":"Point","coordinates":[120.94,30.44]},"properties":{"name":"Fangjiashan","country":"China","mw":2024,"year":null,"owner":""}},{"type":"Feature","geometry":{"type":"Point","coordinates":[132.3088,33.4909]},"properties":{"name":"Ikata","country":"Japan","mw":2022,"year":null,"owner":"Shikoku"}},{"type":"Feature","geometry":{"type":"Point","coordinates":[-88.27,41.39]},"properties":{"name":"Dresden Generating Station","country":"United States of America","mw":2019,"year":1970,"owner":"Exelon Nuclear"}},{"type":"Feature","geometry":{"type":"Point","coordinates":[-90.3103,41.7261]},"properties":{"name":"Quad Cities Generating Station","country":"United States of America","mw":2019,"year":1973,"owner":"Exelon Nuclear"}},{"type":"Feature","geometry":{"type":"Point","coordinates":[-5.6986,39.807]},"properties":{"name":"CN ALMARAZ 1","country":"Spain","mw":2017,"year":1984,"owner":"IBERDROLA GENERACION  S.A."}},{"type":"Feature","geometry":{"type":"Point","coordinates":[-78.0114,33.9597]},"properties":{"name":"Brunswick Nuclear","country":"United States of America","mw":2003,"year":1976,"owner":"Duke Energy Progress - (NC)"}},{"type":"Feature","geometry":{"type":"Point","coordinates":[23.7723,43.7438]},"properties":{"name":"KOZLODUY","country":"Bulgaria","mw":2000,"year":null,"owner":""}},{"type":"Feature","geometry":{"type":"Point","coordinates":[108.56,21.67]},"properties":{"name":"Fangchenggang","country":"China","mw":2000,"year":null,"owner":""}},{"type":"Feature","geometry":{"type":"Point","coordinates":[77.1327,8.1691]},"properties":{"name":"KUNDANKULAM","country":"India","mw":2000,"year":2015,"owner":""}},{"type":"Feature","geometry":{"type":"Point","coordinates":[77.7126,8.1689]},"properties":{"name":"Kudankulam","country":"India","mw":2000,"year":null,"owner":""}},{"type":"Feature","geometry":{"type":"Point","coordinates":[140.5125,43.0367]},"properties":{"name":"Tomari","country":"Japan","mw":2000,"year":null,"owner":"Hokkaido"}},{"type":"Feature","geometry":{"type":"Point","coordinates":[129.4786,35.7221]},"properties":{"name":"Shin-Wolsong","country":"South Korea","mw":2000,"year":2012,"owner":"Korea Hydro and Nuclear"}},{"type":"Feature","geometry":{"type":"Point","coordinates":[26.6473,50.3024]},"properties":{"name":"Khmelnytska","country":"Ukraine","mw":2000,"year":null,"owner":"Energoatom"}},{"type":"Feature","geometry":{"type":"Point","coordinates":[0.5679,41.2008]},"properties":{"name":"ASCO GR","country":"Spain","mw":1990,"year":1983,"owner":"ENDESA GENERACION S.A."}},{"type":"Feature","geometry":{"type":"Point","coordinates":[119.46,34.69]},"properties":{"name":"Tianwan","country":"China","mw":1980,"year":null,"owner":""}},{"type":"Feature","geometry":{"type":"Point","coordinates":[-77.7897,38.06]},"properties":{"name":"North Anna","country":"United States of America","mw":1960,"year":1979,"owner":"Virginia Electric & Power Co"}},{"type":"Feature","geometry":{"type":"Point","coordinates":[120.7501,21.9589]},"properties":{"name":"Maanshan","country":"Taiwan","mw":1902,"year":null,"owner":""}},{"type":"Feature","geometry":{"type":"Point","coordinates":[-76.41,43.5211]},"properties":{"name":"Nine Mile Point Nuclear Station","country":"United States of America","mw":1901,"year":1981,"owner":"Exelon Nuclear"}},{"type":"Feature","geometry":{"type":"Point","coordinates":[114.54,22.6]},"properties":{"name":"Daya Bay","country":"China","mw":1888,"year":null,"owner":""}},{"type":"Feature","geometry":{"type":"Point","coordinates":[18.8536,46.5739]},"properties":{"name":"Paksi Atomerőmű","country":"Hungary","mw":1887,"year":null,"owner":""}},{"type":"Feature","geometry":{"type":"Point","coordinates":[39.21,51.2822]},"properties":{"name":"Novovoronezh","country":"Russia","mw":1880,"year":null,"owner":"JSC \"Concern Rosenergoatom\""}},{"type":"Feature","geometry":{"type":"Point","coordinates":[-76.4417,38.4344]},"properties":{"name":"Calvert Cliffs Nuclear Power Plant","country":"United States of America","mw":1850,"year":1976,"owner":"Exelon Nuclear"}},{"type":"Feature","geometry":{"type":"Point","coordinates":[-82.3447,31.9342]},"properties":{"name":"Edwin I Hatch","country":"United States of America","mw":1848,"year":1977,"owner":"Georgia Power Co"}},{"type":"Feature","geometry":{"type":"Point","coordinates":[-80.4336,40.6219]},"properties":{"name":"Beaver Valley","country":"United States of America","mw":1847,"year":1981,"owner":"FirstEnergy Nuclear Operating Company"}},{"type":"Feature","geometry":{"type":"Point","coordinates":[-93.2351,35.311]},"properties":{"name":"Arkansas Nuclear One","country":"United States of America","mw":1845,"year":1977,"owner":"Entergy Arkansas LLC"}},{"type":"Feature","geometry":{"type":"Point","coordinates":[1.5783,47.7197]},"properties":{"name":"ST LAURENT","country":"France","mw":1830,"year":null,"owner":""}},{"type":"Feature","geometry":{"type":"Point","coordinates":[18.4281,-33.6737]},"properties":{"name":"Koeberg","country":"South Africa","mw":1800,"year":1984,"owner":"Eskom"}},{"type":"Feature","geometry":{"type":"Point","coordinates":[130.1887,31.8335]},"properties":{"name":"Sendai","country":"Japan","mw":1780,"year":null,"owner":"Kyushu"}},{"type":"Feature","geometry":{"type":"Point","coordinates":[-85.1116,31.2231]},"properties":{"name":"Joseph M Farley","country":"United States of America","mw":1776,"year":1979,"owner":"Alabama Power Co"}},{"type":"Feature","geometry":{"type":"Point","coordinates":[21.4433,61.2371]},"properties":{"name":"Olkiluoto 1","country":"Finland","mw":1760,"year":null,"owner":"Teollisuuden Voima Oyj"}},{"type":"Feature","geometry":{"type":"Point","coordinates":[7.5631,47.9032]},"properties":{"name":"FESSENHEIM","country":"France","mw":1760,"year":null,"owner":""}},{"type":"Feature","geometry":{"type":"Point","coordinates":[32.4667,67.4667]},"properties":{"name":"Kola NPP","country":"Russia","mw":1760,"year":null,"owner":"JSC \"Concern Rosenergoatom\""}},{"type":"Feature","geometry":{"type":"Point","coordinates":[136.7265,37.0609]},"properties":{"name":"Shika","country":"Japan","mw":1746,"year":null,"owner":"Hokuriku"}},{"type":"Feature","geometry":{"type":"Point","coordinates":[-76.6986,37.1661]},"properties":{"name":"Surry","country":"United States of America","mw":1695,"year":1973,"owner":"Virginia Electric & Power Co"}},{"type":"Feature","geometry":{"type":"Point","coordinates":[-96.4064,19.7208]},"properties":{"name":"Laguna Verde","country":"Mexico","mw":1510,"year":null,"owner":"CFE"}},{"type":"Feature","geometry":{"type":"Point","coordinates":[12.2936,48.6049]},"properties":{"name":"ISAR-2","country":"Germany","mw":1485,"year":1988,"owner":""}},{"type":"Feature","geometry":{"type":"Point","coordinates":[9.345,53.8506]},"properties":{"name":"BROKDORF","country":"Germany","mw":1480,"year":1986,"owner":""}},{"type":"Feature","geometry":{"type":"Point","coordinates":[61.3225,56.8417]},"properties":{"name":"Beloyarsk","country":"Russia","mw":1480,"year":1964,"owner":"Rosatom"}},{"type":"Feature","geometry":{"type":"Point","coordinates":[8.4364,49.2529]},"properties":{"name":"PHILIPPSBURG-2","country":"Germany","mw":1468,"year":1984,"owner":""}},{"type":"Feature","geometry":{"type":"Point","coordinates":[-91.0478,32.0081]},"properties":{"name":"Grand Gulf","country":"United States of America","mw":1440,"year":1985,"owner":"System Energy Resources  Inc"}},{"type":"Feature","geometry":{"type":"Point","coordinates":[7.3204,52.4716]},"properties":{"name":"EMSLAND","country":"Germany","mw":1406,"year":1988,"owner":""}},{"type":"Feature","geometry":{"type":"Point","coordinates":[9.1759,49.0408]},"properties":{"name":"NECKARWESTHEIM-2","country":"Germany","mw":1400,"year":1989,"owner":""}},{"type":"Feature","geometry":{"type":"Point","coordinates":[72.6617,19.8294]},"properties":{"name":"TARAPUR","country":"India","mw":1400,"year":1996,"owner":""}},{"type":"Feature","geometry":{"type":"Point","coordinates":[9.4135,52.0356]},"properties":{"name":"Grohnde","country":"Germany","mw":1360,"year":1985,"owner":"E.ON Kernkraft GmbH"}},{"type":"Feature","geometry":{"type":"Point","coordinates":[-44.4588,-23.0072]},"properties":{"name":"Almirante Álvaro Alberto - Unidade II (Antiga Angra II)","country":"Brazil","mw":1350,"year":2000,"owner":""}},{"type":"Feature","geometry":{"type":"Point","coordinates":[71.4616,32.392]},"properties":{"name":"Chasnupp","country":"Pakistan","mw":1330,"year":null,"owner":"Pakistan Atomic Energy Commission"}},{"type":"Feature","geometry":{"type":"Point","coordinates":[-81.1439,41.8006]},"properties":{"name":"Perry","country":"United States of America","mw":1312,"year":1987,"owner":"FirstEnergy Nuclear Operating Company"}},{"type":"Feature","geometry":{"type":"Point","coordinates":[-87.5369,44.2806]},"properties":{"name":"Point Beach Nuclear Plant","country":"United States of America","mw":1311,"year":1971,"owner":"NextEra Energy Point Beach LLC"}},{"type":"Feature","geometry":{"type":"Point","coordinates":[-73.9527,41.2706]},"properties":{"name":"Indian Point 2","country":"United States of America","mw":1299,"year":1973,"owner":"Entergy Nuclear Indian Point 2"}},{"type":"Feature","geometry":{"type":"Point","coordinates":[28.0568,44.3215]},"properties":{"name":"NPP Cernavoda","country":"Romania","mw":1298,"year":null,"owner":""}},{"type":"Feature","geometry":{"type":"Point","coordinates":[-75.5377,39.4666]},"properties":{"name":"PSEG Hope Creek Generating Station","country":"United States of America","mw":1291,"year":1986,"owner":"PSEG Nuclear LLC"}},{"type":"Feature","geometry":{"type":"Point","coordinates":[-83.2581,41.9631]},"properties":{"name":"Fermi","country":"United States of America","mw":1281,"year":1986,"owner":"DTE Electric Company"}},{"type":"Feature","geometry":{"type":"Point","coordinates":[121.5874,25.2861]},"properties":{"name":"Chinshan","country":"Taiwan","mw":1272,"year":null,"owner":""}},{"type":"Feature","geometry":{"type":"Point","coordinates":[-95.6898,38.2393]},"properties":{"name":"Wolf Creek Generating Station","country":"United States of America","mw":1268,"year":1985,"owner":"Wolf Creek Nuclear Optg Corp"}},{"type":"Feature","geometry":{"type":"Point","coordinates":[8.1845,47.6012]},"properties":{"name":"Kernkraftwerk Leibstadt","country":"Switzerland","mw":1245,"year":1984,"owner":"Kernkraftwerk leibstadt AG"}},{"type":"Feature","geometry":{"type":"Point","coordinates":[-70.8489,42.8992]},"properties":{"name":"Seabrook","country":"United States of America","mw":1242,"year":1990,"owner":"NextEra Energy Seabrook LLC"}},{"type":"Feature","geometry":{"type":"Point","coordinates":[-91.7788,38.7589]},"properties":{"name":"Callaway","country":"United States of America","mw":1236,"year":1985,"owner":"Union Electric Co - (MO)"}},{"type":"Feature","geometry":{"type":"Point","coordinates":[-2.916,54.0285]},"properties":{"name":"Heysham 2","country":"United Kingdom","mw":1230,"year":null,"owner":"British Energy (now part of EDF)"}},{"type":"Feature","geometry":{"type":"Point","coordinates":[108.9,19.46]},"properties":{"name":"Changjiang","country":"China","mw":1220,"year":null,"owner":""}},{"type":"Feature","geometry":{"type":"Point","coordinates":[-119.3339,46.4711]},"properties":{"name":"Columbia Generating Station","country":"United States of America","mw":1200,"year":1985,"owner":"Energy Northwest"}},{"type":"Feature","geometry":{"type":"Point","coordinates":[-90.4716,29.9953]},"properties":{"name":"Waterford 3","country":"United States of America","mw":1200,"year":1985,"owner":"Entergy Louisiana LLC"}},{"type":"Feature","geometry":{"type":"Point","coordinates":[1.6206,52.2145]},"properties":{"name":"Sizewell B","country":"United Kingdom","mw":1198,"year":null,"owner":"British Energy (now part of EDF)"}},{"type":"Feature","geometry":{"type":"Point","coordinates":[-92.6333,44.622]},"properties":{"name":"Prairie Island","country":"United States of America","mw":1186,"year":1974,"owner":"Northern States Power Co - Minnesota"}},{"type":"Feature","geometry":{"type":"Point","coordinates":[-2.4086,55.9679]},"properties":{"name":"Torness","country":"United Kingdom","mw":1185,"year":null,"owner":"British Energy (now part of EDF)"}},{"type":"Feature","geometry":{"type":"Point","coordinates":[-1.1801,54.6341]},"properties":{"name":"Hartlepool","country":"United Kingdom","mw":1180,"year":null,"owner":"British Energy (now part of EDF)"}},{"type":"Feature","geometry":{"type":"Point","coordinates":[136.0189,35.7519]},"properties":{"name":"Tsuruga","country":"Japan","mw":1160,"year":null,"owner":"Japan Atomic Power Co."}},{"type":"Feature","geometry":{"type":"Point","coordinates":[-2.916,54.0285]},"properties":{"name":"Heysham 1","country":"United Kingdom","mw":1155,"year":null,"owner":"British Energy (now part of EDF)"}},{"type":"Feature","geometry":{"type":"Point","coordinates":[-88.8339,40.1719]},"properties":{"name":"Clinton Power Station","country":"United States of America","mw":1138,"year":1987,"owner":"Exelon Nuclear"}},{"type":"Feature","geometry":{"type":"Point","coordinates":[141.3903,41.188]},"properties":{"name":"Higashi-Dori","country":"Japan","mw":1100,"year":null,"owner":"Tohoku"}},{"type":"Feature","geometry":{"type":"Point","coordinates":[140.6028,36.4215]},"properties":{"name":"Tokai Daini","country":"Japan","mw":1100,"year":null,"owner":"Japan Atomic Power Co."}},{"type":"Feature","geometry":{"type":"Point","coordinates":[-79.0689,43.8107]},"properties":{"name":"Pickering A","country":"Canada","mw":1084,"year":null,"owner":""}},{"type":"Feature","geometry":{"type":"Point","coordinates":[75.6189,24.8747]},"properties":{"name":"R.A.P.S.","country":"India","mw":1080,"year":2000,"owner":""}},{"type":"Feature","geometry":{"type":"Point","coordinates":[-1.0509,39.2134]},"properties":{"name":"CN COFRENTES","country":"Spain","mw":1064,"year":1985,"owner":"IBERDROLA GENERACION NUCLEAR  S.A.U."}},{"type":"Feature","geometry":{"type":"Point","coordinates":[0.964,50.9133]},"properties":{"name":"Dungeness B","country":"United Kingdom","mw":1050,"year":null,"owner":"British Energy (now part of EDF)"}},{"type":"Feature","geometry":{"type":"Point","coordinates":[0.8662,40.9511]},"properties":{"name":"VANDELLOS GR 2","country":"Spain","mw":1045,"year":1987,"owner":"ENDESA GENERACION S.A."}},{"type":"Feature","geometry":{"type":"Point","coordinates":[-91.3327,30.757]},"properties":{"name":"River Bend","country":"United States of America","mw":1036,"year":1986,"owner":"Entergy Louisiana LLC"}},{"type":"Feature","geometry":{"type":"Point","coordinates":[7.968,47.3656]},"properties":{"name":"Kernkraftwerk Gösgen","country":"Switzerland","mw":1035,"year":1979,"owner":"Kernkraftwerk Gösgen-Däniken AG"}},{"type":"Feature","geometry":{"type":"Point","coordinates":[-81.3153,34.2983]},"properties":{"name":"V C Summer","country":"United States of America","mw":1030,"year":1984,"owner":"Dominion Energy South Carolina  Inc"}},{"type":"Feature","geometry":{"type":"Point","coordinates":[-73.9526,41.2706]},"properties":{"name":"Indian Point 3","country":"United States of America","mw":1012,"year":1976,"owner":"Entergy Nuclear Indian Point 3"}},{"type":"Feature","geometry":{"type":"Point","coordinates":[-2.6227,40.7016]},"properties":{"name":"TRILLO","country":"Spain","mw":1003,"year":1988,"owner":"IBERDROLA GENERACION  S.A."}},{"type":"Feature","geometry":{"type":"Point","coordinates":[50.8857,28.8298]},"properties":{"name":"Bushehr","country":"Iran","mw":1000,"year":2011,"owner":"Nuclear Power Production and Development Company of Iran"}},{"type":"Feature","geometry":{"type":"Point","coordinates":[26.3468,60.3708]},"properties":{"name":"Loviisa Y1","country":"Finland","mw":992,"year":null,"owner":"Fortum Power & Heat   Power"}},{"type":"Feature","geometry":{"type":"Point","coordinates":[-4.8964,55.7204]},"properties":{"name":"Hunterston B","country":"United Kingdom","mw":965,"year":null,"owner":"British Energy (now part of EDF)"}},{"type":"Feature","geometry":{"type":"Point","coordinates":[5.2751,50.5342]},"properties":{"name":"TIHANGE 1N","country":"Belgium","mw":962,"year":1975,"owner":""}},{"type":"Feature","geometry":{"type":"Point","coordinates":[-3.1334,51.2085]},"properties":{"name":"Hinkley Point B","country":"United Kingdom","mw":955,"year":null,"owner":"British Energy (now part of EDF)"}},{"type":"Feature","geometry":{"type":"Point","coordinates":[-78.9556,35.6334]},"properties":{"name":"Harris","country":"United States of America","mw":951,"year":1987,"owner":"Duke Energy Progress - (NC)"}},{"type":"Feature","geometry":{"type":"Point","coordinates":[-83.0861,41.5967]},"properties":{"name":"Davis Besse","country":"United States of America","mw":925,"year":1977,"owner":"FirstEnergy Nuclear Operating Company"}},{"type":"Feature","geometry":{"type":"Point","coordinates":[-76.4084,43.5214]},"properties":{"name":"James A Fitzpatrick","country":"United States of America","mw":883,"year":1976,"owner":"Exelon Nuclear"}},{"type":"Feature","geometry":{"type":"Point","coordinates":[74.4385,14.865]},"properties":{"name":"KAIGA","country":"India","mw":880,"year":2004,"owner":""}},{"type":"Feature","geometry":{"type":"Point","coordinates":[17.6816,48.496]},"properties":{"name":"Bohunice Nuclear Power Plant Slovakia","country":"Slovakia","mw":880,"year":null,"owner":""}},{"type":"Feature","geometry":{"type":"Point","coordinates":[18.459,48.2621]},"properties":{"name":"Mochovce Nuclear Power Plant Slovakia","country":"Slovakia","mw":880,"year":null,"owner":""}},{"type":"Feature","geometry":{"type":"Point","coordinates":[135.9634,35.7024]},"properties":{"name":"Mihama","country":"Japan","mw":826,"year":null,"owner":"Kansai"}},{"type":"Feature","geometry":{"type":"Point","coordinates":[132.9991,35.5379]},"properties":{"name":"Shimane","country":"Japan","mw":820,"year":null,"owner":"Chugoku"}},{"type":"Feature","geometry":{"type":"Point","coordinates":[-86.3146,42.323]},"properties":{"name":"Palisades","country":"United States of America","mw":812,"year":1972,"owner":"Entergy Nuclear Palisades LLC"}},{"type":"Feature","geometry":{"type":"Point","coordinates":[-95.6408,40.3628]},"properties":{"name":"Cooper Nuclear Station","country":"United States of America","mw":801,"year":1974,"owner":"Nebraska Public Power District"}},{"type":"Feature","geometry":{"type":"Point","coordinates":[-80.1589,34.4017]},"properties":{"name":"H B Robinson","country":"United States of America","mw":769,"year":1971,"owner":"Duke Energy Progress - (NC)"}},{"type":"Feature","geometry":{"type":"Point","coordinates":[8.2281,47.552]},"properties":{"name":"Kernkraftwerk Beznau","country":"Switzerland","mw":760,"year":null,"owner":"Axpo AG"}},{"type":"Feature","geometry":{"type":"Point","coordinates":[-59.2045,-33.9674]},"properties":{"name":"ATUCHA II","country":"Argentina","mw":745,"year":2014,"owner":"NASA"}},{"type":"Feature","geometry":{"type":"Point","coordinates":[15.516,45.9389]},"properties":{"name":"Krsko (NEK)","country":"Slovenia","mw":696,"year":null,"owner":""}},{"type":"Feature","geometry":{"type":"Point","coordinates":[-93.8493,45.3338]},"properties":{"name":"Monticello Nuclear Facility","country":"United States of America","mw":685,"year":1971,"owner":"Northern States Power Co - Minnesota"}},{"type":"Feature","geometry":{"type":"Point","coordinates":[-91.7781,42.1011]},"properties":{"name":"Duane Arnold Energy Center","country":"United States of America","mw":680,"year":1975,"owner":"NextEra Energy Duane Arnold LLC"}},{"type":"Feature","geometry":{"type":"Point","coordinates":[-66.4543,45.0686]},"properties":{"name":"Point Lepreau","country":"Canada","mw":660,"year":null,"owner":""}},{"type":"Feature","geometry":{"type":"Point","coordinates":[-64.4422,-32.2316]},"properties":{"name":"EMBALSE","country":"Argentina","mw":648,"year":1984,"owner":"NASA"}},{"type":"Feature","geometry":{"type":"Point","coordinates":[-44.4574,-23.0087]},"properties":{"name":"Almirante Álvaro Alberto - Unidade I (Antiga Angra I)","country":"Brazil","mw":640,"year":1985,"owner":""}},{"type":"Feature","geometry":{"type":"Point","coordinates":[-77.3099,43.2777]},"properties":{"name":"R E Ginna Nuclear Power Plant","country":"United States of America","mw":614,"year":1970,"owner":"Exelon Nuclear"}},{"type":"Feature","geometry":{"type":"Point","coordinates":[3.7174,51.4312]},"properties":{"name":"Borssele Nuclear Power Station","country":"Netherlands","mw":485,"year":1973,"owner":"EPZ"}},{"type":"Feature","geometry":{"type":"Point","coordinates":[73.3489,21.2384]},"properties":{"name":"KAKRAPARA","country":"India","mw":440,"year":1993,"owner":""}},{"type":"Feature","geometry":{"type":"Point","coordinates":[80.1754,12.5571]},"properties":{"name":"M.A.P.P.","country":"India","mw":440,"year":1984,"owner":""}},{"type":"Feature","geometry":{"type":"Point","coordinates":[78.4089,28.156]},"properties":{"name":"N.A.P.S","country":"India","mw":440,"year":1990,"owner":""}},{"type":"Feature","geometry":{"type":"Point","coordinates":[7.2684,46.9689]},"properties":{"name":"Kernkraftwerk Mühleberg","country":"Switzerland","mw":390,"year":1972,"owner":"BWK FMB Energie AG"}},{"type":"Feature","geometry":{"type":"Point","coordinates":[44.1498,40.1805]},"properties":{"name":"Armenian-2","country":"Armenia","mw":375,"year":1980,"owner":"Armenian Nuclear Power Company"}},{"type":"Feature","geometry":{"type":"Point","coordinates":[-59.2059,-33.967]},"properties":{"name":"ATUCHA I","country":"Argentina","mw":370,"year":1974,"owner":"NASA"}},{"type":"Feature","geometry":{"type":"Point","coordinates":[66.7888,24.845]},"properties":{"name":"Kanupp","country":"Pakistan","mw":137,"year":1971,"owner":"Pakistan Atomic Energy Commission"}},{"type":"Feature","geometry":{"type":"Point","coordinates":[75.6189,24.8747]},"properties":{"name":"DAE RAJASTHAN","country":"India","mw":100,"year":1972,"owner":""}},{"type":"Feature","geometry":{"type":"Point","coordinates":[166.5389,68.0503]},"properties":{"name":"Bilibino","country":"Russia","mw":48,"year":null,"owner":"JSC \"Concern Rosenergoatom\""}},{"type":"Feature","geometry":{"type":"Point","coordinates":[116.03,39.74]},"properties":{"name":"CEFR","country":"China","mw":20,"year":null,"owner":""}}]}